MERAH PUTIH 2           
1 58995U 24035A   26087.85237806 -.00000377  00000+0  00000+0 0  9998
2 58995   0.0163 204.1933 0000943 186.6496 215.2210  1.00272416  7784
TJS-11                  
1 59020U 24037A   26087.71150553 -.00000390  00000+0  00000+0 0  9993
2 59020   4.3071 326.0927 0005667  58.4793 178.0209  1.00271409  7774
HULIANWAN GAOGUI-01 (H*)
1 59069U 24040A   26086.94489359  .00000137  00000+0  00000+0 0  9991
2 59069   0.0649 321.4159 0004109  45.5362 192.2163  1.00274746  6511
EUTELSAT 36D            
1 59346U 24059A   26087.83709889  .00000136  00000+0  00000+0 0  9990
2 59346   0.0046  92.0530 0000248 275.6946 155.6938  1.00270925  7348
PAKSAT-MM1              
1 59915U 24104A   26087.19578593  .00000134  00000+0  00000+0 0  9996
2 59915   0.0108 195.5719 0002533 165.0772 293.6542  1.00271221  6719
EKRAN 2 DEB             
1 59987U 77092N   26087.85090471 -.00000349  00000+0  00000+0 0  9995
2 59987   4.3328 275.0231 0011930 221.2146 101.9349  1.00180032 62305
ASTRA 1P (SES-24)       
1 60086U 24115A   26087.83380556  .00000100  00000+0  00000+0 0  9993
2 60086   0.0630  15.4133 0003768 303.8595 186.3173  1.00272256  6397
GOES 19                 
1 60133U 24119A   26087.60112693 -.00000268  00000+0  00000+0 0  9996
2 60133   0.0476  15.5541 0000818  25.4447 286.2025  1.00270005  6158
ZHONGXING-3A            
1 60179U 24122A   26083.50043819 -.00000321  00000+0  00000+0 0  9998
2 60179   0.0442   2.7357 0002305  82.4897  18.4610  1.00269180  6460
TURKSAT 6A              
1 60233U 24127A   26087.83831223  .00000127  00000+0  00000+0 0  9991
2 60233   0.0299 199.4446 0001500 129.2241 201.3596  1.00272636  6212
HULIANWAN GAOGUI-02 (H*)
1 60327U 24135A   26084.15222133  .00000000  00000+0  00000+0 0  9990
2 60327   0.0160  52.4160 0008316 296.0250  42.0773  1.00265874  6650
ZHONGXING-4A            
1 60606U 24151A   26087.85341806 -.00000385  00000+0  00000+0 0  9994
2 60606   1.5217 271.7198 0001271  92.9063 247.0425  1.00269262  5941
HULIANWAN GAOGUI-03 (H*)
1 61503U 24181A   26086.03204642  .00000000  00000+0  00000+0 0  9992
2 61503   0.0142  61.6092 0000512  80.8292 336.4433  1.00268557  6001
DSN-3 (KIRAMEKI-3)      
1 61733U 24198A   26087.35932663 -.00000270  00000+0  00000+0 0  9992
2 61733   0.0244 103.8210 0001286 225.4455 129.9097  1.00270797  5118
KOREASAT 6A             
1 61910U 24206A   26087.85298471 -.00000381  00000+0  00000+0 0  9999
2 61910   0.0108 167.0367 0001012 180.4179 261.8868  1.00272369  5039
INTELSAT 33E DEB        
1 61994U 16053L   26087.32500032 -.00000221  00000+0  00000+0 0  9996
2 61994   1.3775  86.6493 0025367 210.7980 149.9632  1.00491220  5288
INTELSAT 33E DEB        
1 61998U 16053Q   26086.80668377 -.00000224  00000+0  00000+0 0  9992
2 61998   1.3493  84.0848 0029872 277.4921  83.0444  1.00398836  5283
